{
  "norad_id": 67054,
  "name": "STARLINK-35754",
  "history": [
    {
      "epoch": "2026-03-28T20:55:46.403904Z",
      "apogee_km": 483.6540655129711,
      "perigee_km": 482.2859607745495,
      "latitude_deg": 2.417379270526716e-05,
      "longitude_deg": 149.44809391627035,
      "height_km": 482.70456995007567,
      "semi_major_axis_km": 6861.10701314376,
      "eccentricity": 9.97e-05,
      "inclination_deg": 42.9998,
      "raan_deg": 289.6777,
      "arg_perigee_deg": 86.6691,
      "mean_anomaly_deg": 273.4275,
      "mean_motion_rev_day": 15.27606411
    }
  ]
}